ONEWEB-0389             
1 50469U 21132A   25354.59684900  .00000022  00000+0  22894-4 0  9995
2 50469  87.9105  41.3803 0001978 110.8935 249.2408 13.17649073194562
ONEWEB-0390             
1 50470U 21132B   25354.59853002 -.00000055  00000+0 -17560-3 0  9999
2 50470  87.9118  41.3827 0001599  99.8011 260.3301 13.17650290194563
ONEWEB-0391             
1 50471U 21132C   25354.37241883 -.00000007  00000+0 -51601-4 0  9996
2 50471  87.9103  41.4369 0001802 126.8688 233.2609 13.17648015194537
ONEWEB-0392             
1 50472U 21132D   25354.63059564 -.00000014  00000+0 -70051-4 0  9997
2 50472  87.9112  41.3383 0001895 111.3733 248.7601 13.17649367194607
ONEWEB-0393             
1 50473U 21132E   25354.83152619 -.00014466  00000+0 -37309-1 0  9997
2 50473  87.9110  41.3206 0002028  96.7298 263.4064 13.17723251194625
ONEWEB-0394             
1 50474U 21132F   25354.78806556  .00000062  00000+0  12419-3 0  9990
2 50474  87.9176  10.8678 0001822  97.0270 263.1069 13.18686411198080
ONEWEB-0395             
1 50475U 21132G   25354.55630286  .00000538  00000+0  14826-2 0  9992
2 50475  87.8848  56.6466 0001540 107.1082 253.0215 13.11414809192303
ONEWEB-0396             
1 50476U 21132H   25354.47796874  .00000105  00000+0  23311-3 0  9990
2 50476  87.9177  10.9413 0001809  95.0220 265.1119 13.18686816198086
ONEWEB-0397             
1 50477U 21132J   25354.56867769  .00000032  00000+0  49094-4 0  9999
2 50477  87.9175  10.9238 0001976  95.9513 264.1844 13.18687118198078
ONEWEB-0398             
1 50478U 21132K   25354.14260700 -.00000279  00000+0 -82363-3 0  9996
2 50478  87.8860  56.7027 0001347 104.5366 255.5912 13.11417300192147
ONEWEB-0399             
1 50479U 21132L   25354.73940027 -.00000421  00000+0 -12235-2 0  9998
2 50479  87.8850  56.5976 0002117 114.0298 246.1052 13.11414016192214
ONEWEB-0400             
1 50480U 21132M   25354.77486838  .00000089  00000+0  19387-3 0  9993
2 50480  87.9175  10.8728 0001583  92.1381 267.9933 13.18686990198090
ONEWEB-0401             
1 50481U 21132N   25354.51591118  .00000051  00000+0  95601-4 0  9997
2 50481  87.9175  10.9207 0001995  90.6545 269.4816 13.18686133198069
ONEWEB-0402             
1 50482U 21132P   25354.78312633  .00000040  00000+0  68562-4 0  9994
2 50482  87.9175  10.8599 0002358  86.0596 274.0806 13.18686139198126
ONEWEB-0403             
1 50483U 21132Q   25354.80786769  .00000054  00000+0  10415-3 0  9991
2 50483  87.9177  10.8768 0001750  95.7155 264.4176 13.18685940198087
ONEWEB-0404             
1 50484U 21132R   25354.72075457  .00000211  00000+0  55971-3 0  9999
2 50484  87.8848  56.6099 0001865 114.0036 246.1288 13.11412874192304
ONEWEB-0405             
1 50485U 21132S   25354.29157784  .00000061  00000+0  12080-3 0  9993
2 50485  87.9177  10.9633 0002098  93.6335 266.5037 13.18686286198414
ONEWEB-0406             
1 50486U 21132T   25354.81281438 -.00000039  00000+0 -13231-3 0  9992
2 50486  87.9177  10.8843 0001540 110.6945 249.4352 13.18686548198113
ONEWEB-0407             
1 50487U 21132U   25354.57858485  .00000018  00000+0  12341-4 0  9995
2 50487  87.9175  10.9149 0001844  87.4086 272.7257 13.18686075198024
ONEWEB-0409             
1 50488U 21132V   25354.71905833  .00000251  00000+0  67318-3 0  9994
2 50488  87.8864  56.5802 0001649 115.1256 245.0044 13.11412608192193
ONEWEB-0412             
1 50489U 21132W   25354.56703191  .00000030  00000+0  42164-4 0  9999
2 50489  87.9178  10.9304 0002125  90.6620 269.4755 13.18686734198113
ONEWEB-0413             
1 50490U 21132X   25354.79961839 -.00000013  00000+0 -64584-4 0  9994
2 50490  87.9166  10.8957 0002049  88.2126 271.9240 13.18684915198086
ONEWEB-0414             
1 50491U 21132Y   25354.78476690  .00000049  00000+0  91127-4 0  9990
2 50491  87.9177  10.8630 0002001  95.8796 264.2564 13.18686964198116
ONEWEB-0417             
1 50492U 21132Z   25354.56538830  .00000011  00000+0 -52592-5 0  9996
2 50492  87.9180  10.9409 0001726 100.4119 259.7207 13.18686201198062
ONEWEB-0418             
1 50493U 21132AA  25354.80277455  .00000062  00000+0  12576-3 0  9998
2 50493  87.9176  10.8768 0001738 113.8451 246.2864 13.18685930198153
ONEWEB-0419             
1 50494U 21132AB  25354.28992359  .00000015  00000+0  51870-5 0  9998
2 50494  87.9178  10.9798 0001489  98.3343 261.7958 13.18686742198002
ONEWEB-0420             
1 50495U 21132AC  25354.78641794 -.00000013  00000+0 -66084-4 0  9990
2 50495  87.9176  10.8932 0001845  86.9712 273.1631 13.18685225198065
ONEWEB-0421             
1 50496U 21132AD  25354.47631830  .00000095  00000+0  20702-3 0  9991
2 50496  87.9175  10.9475 0002068  95.8065 264.3302 13.18686424198065
ONEWEB-0424             
1 50497U 21132AE  25354.81611028  .00000025  00000+0  30963-4 0  9991
2 50497  87.9174  10.8753 0001388  92.0795 268.0496 13.18687405198139
ONEWEB-0426             
1 50498U 21132AF  25354.77651459  .00000012  00000+0 -31078-5 0  9995
2 50498  87.9174  10.8745 0002293 107.0860 253.0523 13.18686322198072
ONEWEB-0427             
1 50499U 21132AG  25354.81446725  .00000011  00000+0 -60852-5 0  9990
2 50499  87.9174  10.8546 0001708  99.8015 260.3310 13.18685591198108
ONEWEB-0429             
1 50500U 21132AH  25354.80126553  .00000017  00000+0  10677-4 0  9990
2 50500  87.9175  10.8891 0001810  88.3936 271.7403 13.18686457198071
ONEWEB-0430             
1 50501U 21132AJ  25354.78971198 -.00000028  00000+0 -10441-3 0  9993
2 50501  87.9176  10.8870 0001603  87.1681 272.9635 13.18687325198114
ONEWEB-0432             
1 50502U 21132AK  25354.51818635  .00000001  00000+0 -29309-4 0  9995
2 50502  87.9174  10.9128 0001225 121.6601 238.4651 13.18677731198032
ONEWEB-0440             
1 50503U 21132AL  25354.80951731 -.00000012  00000+0 -63773-4 0  9999
2 50503  87.9178  10.8733 0002209  88.3454 271.7931 13.18686071198067
ONEWEB-0450             
1 50504U 21132AM  25354.80305580  .00000011  00000+0 -52596-5 0  9995
2 50504  87.9172  10.8961 0001766  82.5331 277.6002 13.18684086198093
ONEWEB-0410             
1 51622U 22012A   25354.53948124  .00000041  00000+0  72289-4 0  9994
2 51622  87.9113  41.3640 0002521 133.1032 227.0311 13.17648281190173
ONEWEB-0411             
1 51623U 22012B   25354.18373331 -.00000408  00000+0 -12060-2 0  9996
2 51623  87.8808  71.9518 0001226  93.2296 266.8972 13.10374487185845
ONEWEB-0415             
1 51624U 22012C   25354.25677550 -.00000494  00000+0 -14508-2 0  9999
2 51624  87.8806  71.9393 0001412 100.7936 259.3351 13.10374374185851
ONEWEB-0416             
1 51625U 22012D   25354.49746399 -.00000013  00000+0 -72491-4 0  9998
2 51625  87.8808  71.9120 0001321 112.6949 247.4318 13.10375429185928
ONEWEB-0422             
1 51626U 22012E   25354.39773593  .00000051  00000+0  98546-4 0  9993
2 51626  87.9111  41.3959 0002182  82.2893 277.8486 13.17648924190260
ONEWEB-0423             
1 51627U 22012F   25354.08723840  .00000068  00000+0  14322-3 0  9997
2 51627  87.9111  41.4677 0001907  97.8098 262.3250 13.17647895190110
ONEWEB-0425             
1 51628U 22012G   25354.58379202  .00000405  00000+0  11224-2 0  9994
2 51628  87.8810  71.8667 0001943 113.2795 246.8537 13.10376088185934
ONEWEB-0428             
1 51629U 22012H   25354.18207263 -.00000478  00000+0 -14046-2 0  9995
2 51629  87.8810  71.9650 0001772 102.4254 257.7072 13.10374342185844
ONEWEB-0431             
1 51630U 22012J   25354.22841610  .00000241  00000+0  65504-3 0  9994
2 51630  87.8812  71.9359 0001262  85.2884 274.8388 13.10369977185900
ONEWEB-0434             
1 51631U 22012K   25354.51089343  .00000257  00000+0  70075-3 0  9990
2 51631  87.8804  71.9149 0002206 118.1618 241.9733 13.10375387185922
ONEWEB-0435             
1 51632U 22012L   25354.28998374  .00000808  00000+0  22779-2 0  9997
2 51632  87.8800  71.9488 0001933  92.2378 267.8970 13.10373576185889
ONEWEB-0436             
1 51633U 22012M   25354.15473571  .00000073  00000+0  15427-3 0  9998
2 51633  87.9114  41.4328 0001783  90.9710 269.1626 13.17648227190101
ONEWEB-0438             
1 51634U 22012N   25354.27337860  .00000181  00000+0  48204-3 0  9991
2 51634  87.8805  71.9533 0001743 110.1716 249.9599 13.10375476185915
ONEWEB-0439             
1 51635U 22012P   25354.50576916  .00000421  00000+0  11708-2 0  9990
2 51635  87.8807  71.8953 0001793 102.6612 257.4716 13.10376797185922
ONEWEB-0442             
1 51636U 22012Q   25354.07119055  .00000057  00000+0  11486-3 0  9999
2 51636  87.9102  41.4963 0001818 118.5659 241.5656 13.17647101190088
ONEWEB-0443             
1 51637U 22012R   25354.54622836  .00000015  00000+0  63404-5 0  9991
2 51637  87.9100  41.4064 0002154 103.0716 257.0656 13.17648243190198
ONEWEB-0444             
1 51638U 22012S   25354.49580658 -.00000113  00000+0 -35923-3 0  9995
2 51638  87.8806  71.8960 0001784 102.3840 257.7487 13.10375439185933
ONEWEB-0445             
1 51639U 22012T   25354.51736885  .00001565  00000+0  44453-2 0  9991
2 51639  87.8796  71.8602 0002614 114.9998 245.1402 13.10387232185944
ONEWEB-0446             
1 51640U 22012U   25354.26507327 -.00000162  00000+0 -50030-3 0  9995
2 51640  87.8808  71.9589 0001535 105.3658 254.7639 13.10375674185892
ONEWEB-0448             
1 51641U 22012V   25354.27005849  .00000120  00000+0  30678-3 0  9997
2 51641  87.8804  71.9569 0001747 102.9346 257.1976 13.10376668185861
ONEWEB-0449             
1 51642U 22012W   25354.19867901  .00000360  00000+0  99468-3 0  9992
2 51642  87.8810  71.9442 0002019 114.8974 245.2363 13.10376304185866
ONEWEB-0451             
1 51643U 22012X   25354.60697365  .00000008  00000+0 -13769-4 0  9995
2 51643  87.9115  41.3377 0001864 101.1681 258.9660 13.17648105190141
ONEWEB-0452             
1 51644U 22012Y   25354.52935607  .00000037  00000+0  62654-4 0  9999
2 51644  87.9102  41.4072 0002143 101.6842 258.4530 13.17647888190144
